GLOBALSTAR M024         
1 25883U 99043A   25041.17197481 -.00000099  00000+0 -12280-2 0  9995
2 25883  52.0043 307.2174 0000758 254.4698 254.0195 11.10165719100755
GLOBALSTAR M027         
1 25884U 99043B   25041.23554806 -.00000095  00000+0 -11969-2 0  9990
2 25884  52.0242  21.4533 0021393 146.1250 214.0914 11.04370589127211
GLOBALSTAR M054         
1 25885U 99043C   25041.51856416 -.00000099  00000+0 -70977-3 0  9993
2 25885  52.0128 169.3810 0004941 324.1533 115.5958 11.39215969104617
GLOBALSTAR M053         
1 25886U 99043D   25041.48041757 -.00000060  00000+0  24418-3 0  9990
2 25886  51.9977 109.5372 0003542 214.2066 159.1063 11.27662874105152
GLOBALSTAR M058         
1 25907U 99049A   25041.39652138  .00000015  00000+0  13321-2 0  9990
2 25907  51.9937  87.7386 0001829  45.3744 314.7240 11.93198248526409
GLOBALSTAR M050         
1 25908U 99049B   25041.57946716  .00000005  00000+0  10472-2 0  9992
2 25908  51.9987 104.3847 0009741 139.1744   9.1775 12.07448279132898
GLOBALSTAR M055         
1 25910U 99049D   25041.26523244 -.00000070  00000+0  20316-3 0  9990
2 25910  52.0050   2.7725 0006708 227.8663 132.1619 12.29420510152679
